start=new Date('2023-03-10T00:00:00.000Z').valueOf();
sats=[{"CENTER_NAME":"EARTH","ARG_OF_PERICENTER":"86.7536","MEAN_ANOMALY":"273.3555","OBJECT_ID":"2022-052Z","ELEMENT_SET_NO":"999","MEAN_MOTION_DDOT":"0.0000000000000","NORAD_CAT_ID":"52621","DECAY_DATE":null,"RA_OF_ASC_NODE":"150.2824","MEAN_MOTION_DOT":"0.00009995","RCS_SIZE":"LARGE","PERIOD":"95.437","MEAN_ELEMENT_THEORY":"SGP4","COUNTRY_CODE":"US","LAUNCH_DATE":"2022-05-14","REV_AT_EPOCH":"4549","BSTAR":"0.00064491000000","PERIAPSIS":"539.101","EPOCH":"2023-03-09T11:03:34.445376","TIME_SYSTEM":"UTC","CLASSIFICATION_TYPE":"U","INCLINATION":"53.2142","APOAPSIS":"540.299","OBJECT_NAME":"STARLINK-3984","EPHEMERIS_TYPE":"0","FILE":"3855951","MEAN_MOTION":"15.08854900","TLE_LINE2":"2 52621  53.2142 150.2824 0000866  86.7536 273.3555 15.08854900 45494","GP_ID":"227769012","REF_FRAME":"TEME","OBJECT_TYPE":"PAYLOAD","SEMIMAJOR_AXIS":"6917.835","TLE_LINE1":"1 52621U 22052Z   23068.46081534  .00009995  00000-0  64491-3 0  9996","SITE":"AFETR","ECCENTRICITY":"0.00008660"},{"PERIOD":"95.436","MEAN_ELEMENT_THEORY":"SGP4","REV_AT_EPOCH":"4530","LAUNCH_DATE":"2022-05-14","COUNTRY_CODE":"US","RCS_SIZE":"LARGE","RA_OF_ASC_NODE":"164.8390","MEAN_MOTION_DOT":"0.00015526","DECAY_DATE":null,"ELEMENT_SET_NO":"999","NORAD_CAT_ID":"52622","MEAN_MOTION_DDOT":"0.0000000000000","MEAN_ANOMALY":"238.5600","ARG_OF_PERICENTER":"121.5483","CENTER_NAME":"EARTH","OBJECT_ID":"2022-052AA","SITE":"AFETR","ECCENTRICITY":"0.00009260","SEMIMAJOR_AXIS":"6917.799","TLE_LINE1":"1 52622U 22052AA  23068.56063475  .00015526  00000-0  99074-3 0  9994","REF_FRAME":"TEME","GP_ID":"227769759","TLE_LINE2":"2 52622  53.2159 164.8390 0000926 121.5483 238.5600 15.08866747 45304","OBJECT_TYPE":"PAYLOAD","OBJECT_NAME":"STARLINK-4008","APOAPSIS":"540.304","EPHEMERIS_TYPE":"0","MEAN_MOTION":"15.08866747","FILE":"3855951","PERIAPSIS":"539.023","EPOCH":"2023-03-09T13:27:18.842400","BSTAR":"0.00099074000000","INCLINATION":"53.2159","TIME_SYSTEM":"UTC","CLASSIFICATION_TYPE":"U"},{"EPHEMERIS_TYPE":"0","FILE":"3855951","MEAN_MOTION":"15.08861263","APOAPSIS":"540.631","OBJECT_NAME":"STARLINK-3986","TIME_SYSTEM":"UTC","CLASSIFICATION_TYPE":"U","INCLINATION":"53.2154","BSTAR":"0.00063119000000","PERIAPSIS":"538.730","EPOCH":"2023-03-09T22:05:58.259616","TLE_LINE1":"1 52623U 22052AB  23068.92081319  .00009777  00000-0  63119-3 0  9994","SEMIMAJOR_AXIS":"6917.815","ECCENTRICITY":"0.00013740","SITE":"AFETR","OBJECT_TYPE":"PAYLOAD","TLE_LINE2":"2 52623  53.2154 148.2205 0001374 117.6533 242.4599 15.08861263 45568","GP_ID":"227769513","REF_FRAME":"TEME","ELEMENT_SET_NO":"999","NORAD_CAT_ID":"52623","MEAN_MOTION_DDOT":"0.0000000000000","DECAY_DATE":null,"OBJECT_ID":"2022-052AB","CENTER_NAME":"EARTH","ARG_OF_PERICENTER":"117.6533","MEAN_ANOMALY":"242.4599","COUNTRY_CODE":"US","LAUNCH_DATE":"2022-05-14","REV_AT_EPOCH":"4556","PERIOD":"95.436","MEAN_ELEMENT_THEORY":"SGP4","MEAN_MOTION_DOT":"0.00009777","RA_OF_ASC_NODE":"148.2205","RCS_SIZE":"LARGE"},{"MEAN_ELEMENT_THEORY":"SGP4","PERIOD":"95.440","COUNTRY_CODE":"US","REV_AT_EPOCH":"4555","LAUNCH_DATE":"2022-05-14","MEAN_MOTION_DOT":"0.00008030","RA_OF_ASC_NODE":"148.4738","RCS_SIZE":"LARGE","MEAN_MOTION_DDOT":"0.0000000000000","NORAD_CAT_ID":"52624","ELEMENT_SET_NO":"999","DECAY_DATE":null,"CENTER_NAME":"EARTH","ARG_OF_PERICENTER":"96.6047","MEAN_ANOMALY":"263.5111","OBJECT_ID":"2022-052AC","TLE_LINE1":"1 52624U 22052AC  23068.86551737  .00008030  00000-0  52245-3 0  9993","SEMIMAJOR_AXIS":"6917.975","SITE":"AFETR","ECCENTRICITY":"0.00014560","GP_ID":"227768263","TLE_LINE2":"2 52624  53.2158 148.4738 0001456  96.6047 263.5111 15.08809154 45557","REF_FRAME":"TEME","OBJECT_TYPE":"PAYLOAD","APOAPSIS":"540.847","OBJECT_NAME":"STARLINK-4009","FILE":"3855951","MEAN_MOTION":"15.08809154","EPHEMERIS_TYPE":"0","BSTAR":"0.00052245000000","PERIAPSIS":"538.832","EPOCH":"2023-03-09T20:46:20.700768","CLASSIFICATION_TYPE":"U","TIME_SYSTEM":"UTC","INCLINATION":"53.2158"},{"TIME_SYSTEM":"UTC","CLASSIFICATION_TYPE":"U","INCLINATION":"53.2154","BSTAR":"0.00217350000000","PERIAPSIS":"538.647","EPOCH":"2023-03-09T22:00:40.341312","MEAN_MOTION":"15.08879631","FILE":"3855951","EPHEMERIS_TYPE":"0","APOAPSIS":"540.601","OBJECT_NAME":"STARLINK-3988","OBJECT_TYPE":"PAYLOAD","TLE_LINE2":"2 52625  53.2154 148.2356 0001412 100.3492 259.7659 15.08879631 45569","GP_ID":"227768512","REF_FRAME":"TEME","SEMIMAJOR_AXIS":"6917.759","TLE_LINE1":"1 52625U 22052AD  23068.91713358  .00034511  00000-0  21735-2 0  9991","SITE":"AFETR","ECCENTRICITY":"0.00014120","OBJECT_ID":"2022-052AD","CENTER_NAME":"EARTH","ARG_OF_PERICENTER":"100.3492","MEAN_ANOMALY":"259.7659","MEAN_MOTION_DDOT":"0.0000000000000","NORAD_CAT_ID":"52625","ELEMENT_SET_NO":"999","DECAY_DATE":null,"MEAN_MOTION_DOT":"0.00034511","RA_OF_ASC_NODE":"148.2356","RCS_SIZE":"LARGE","COUNTRY_CODE":"US","LAUNCH_DATE":"2022-05-14","REV_AT_EPOCH":"4556","MEAN_ELEMENT_THEORY":"SGP4","PERIOD":"95.435"},{"FILE":"3855951","MEAN_MOTION":"15.08883485","EPHEMERIS_TYPE":"0","APOAPSIS":"540.317","OBJECT_NAME":"STARLINK-3990","CLASSIFICATION_TYPE":"U","TIME_SYSTEM":"UTC","INCLINATION":"53.2136","BSTAR":"0.00458280000000","PERIAPSIS":"538.908","EPOCH":"2023-03-09T12:44:15.549792","TLE_LINE1":"1 52626U 22052AE  23068.53073553  .00073496  00000-0  45828-2 0  9990","SEMIMAJOR_AXIS":"6917.747","ECCENTRICITY":"0.00010190","SITE":"AFETR","OBJECT_TYPE":"PAYLOAD","TLE_LINE2":"2 52626  53.2136 149.9707 0001019  95.6322 264.4786 15.08883485 45509","GP_ID":"227769259","REF_FRAME":"TEME","MEAN_MOTION_DDOT":"0.0000000000000","NORAD_CAT_ID":"52626","ELEMENT_SET_NO":"999","DECAY_DATE":null,"OBJECT_ID":"2022-052AE","CENTER_NAME":"EARTH","ARG_OF_PERICENTER":"95.6322","MEAN_ANOMALY":"264.4786","COUNTRY_CODE":"US","REV_AT_EPOCH":"4550","LAUNCH_DATE":"2022-05-14","MEAN_ELEMENT_THEORY":"SGP4","PERIOD":"95.435","RA_OF_ASC_NODE":"149.9707","MEAN_MOTION_DOT":"0.00073496","RCS_SIZE":"LARGE"},{"RA_OF_ASC_NODE":"148.2850","MEAN_MOTION_DOT":"0.00011634","RCS_SIZE":"LARGE","PERIOD":"95.435","MEAN_ELEMENT_THEORY":"SGP4","COUNTRY_CODE":"US","LAUNCH_DATE":"2022-05-14","REV_AT_EPOCH":"4557","CENTER_NAME":"EARTH","ARG_OF_PERICENTER":"90.4744","MEAN_ANOMALY":"269.6404","OBJECT_ID":"2022-052AF","ELEMENT_SET_NO":"999","MEAN_MOTION_DDOT":"0.0000000000000","NORAD_CAT_ID":"52627","DECAY_DATE":null,"GP_ID":"227770014","TLE_LINE2":"2 52627  53.2144 148.2850 0001354  90.4744 269.6404 15.08872713 45576","REF_FRAME":"TEME","OBJECT_TYPE":"PAYLOAD","SEMIMAJOR_AXIS":"6917.780","TLE_LINE1":"1 52627U 22052AF  23068.90609564  .00011634  00000-0  74721-3 0  9990","ECCENTRICITY":"0.00013540","SITE":"AFETR","BSTAR":"0.00074721000000","EPOCH":"2023-03-09T21:44:46.663296","PERIAPSIS":"538.709","CLASSIFICATION_TYPE":"U","TIME_SYSTEM":"UTC","INCLINATION":"53.2144","APOAPSIS":"540.582","OBJECT_NAME":"STARLINK-3992","EPHEMERIS_TYPE":"0","MEAN_MOTION":"15.08872713","FILE":"3855951"},{"RCS_SIZE":"LARGE","RA_OF_ASC_NODE":"163.6589","MEAN_MOTION_DOT":"0.00025232","LAUNCH_DATE":"2022-05-14","REV_AT_EPOCH":"4534","COUNTRY_CODE":"US","MEAN_ELEMENT_THEORY":"SGP4","PERIOD":"95.435","OBJECT_ID":"2022-052AG","MEAN_ANOMALY":"309.0864","ARG_OF_PERICENTER":"51.0253","CENTER_NAME":"EARTH","DECAY_DATE":null,"MEAN_MOTION_DDOT":"0.0000000000000","NORAD_CAT_ID":"52628","ELEMENT_SET_NO":"999","OBJECT_TYPE":"PAYLOAD","REF_FRAME":"TEME","GP_ID":"227768764","TLE_LINE2":"2 52628  53.2131 163.6589 0001412  51.0253 309.0864 15.08878221 45340","SITE":"AFETR","ECCENTRICITY":"0.00014120","SEMIMAJOR_AXIS":"6917.764","TLE_LINE1":"1 52628U 22052AG  23068.82191117  .00025232  00000-0  15961-2 0  9991","INCLINATION":"53.2131","TIME_SYSTEM":"UTC","CLASSIFICATION_TYPE":"U","EPOCH":"2023-03-09T19:43:33.125088","PERIAPSIS":"538.652","BSTAR":"0.00159610000000","MEAN_MOTION":"15.08878221","FILE":"3855951","EPHEMERIS_TYPE":"0","OBJECT_NAME":"STARLINK-4001","APOAPSIS":"540.605"},{"RCS_SIZE":"LARGE","RA_OF_ASC_NODE":"148.6010","MEAN_MOTION_DOT":"0.00012385","PERIOD":"95.435","MEAN_ELEMENT_THEORY":"SGP4","LAUNCH_DATE":"2022-05-14","REV_AT_EPOCH":"4555","COUNTRY_CODE":"US","MEAN_ANOMALY":"178.7563","CENTER_NAME":"EARTH","ARG_OF_PERICENTER":"181.3425","OBJECT_ID":"2022-052AH","DECAY_DATE":null,"ELEMENT_SET_NO":"999","MEAN_MOTION_DDOT":"0.0000000000000","NORAD_CAT_ID":"52629","REF_FRAME":"TEME","GP_ID":"227769013","TLE_LINE2":"2 52629  53.2163 148.6010 0001570 181.3425 178.7563 15.08878441 45555","OBJECT_TYPE":"PAYLOAD","ECCENTRICITY":"0.00015700","SITE":"AFETR","TLE_LINE1":"1 52629U 22052AH  23068.83712191  .00012385  00000-0  79404-3 0  9992","SEMIMAJOR_AXIS":"6917.763","EPOCH":"2023-03-09T20:05:27.333024","PERIAPSIS":"538.542","BSTAR":"0.00079404000000","INCLINATION":"53.2163","TIME_SYSTEM":"UTC","CLASSIFICATION_TYPE":"U","OBJECT_NAME":"STARLINK-4022","APOAPSIS":"540.714","EPHEMERIS_TYPE":"0","FILE":"3855951","MEAN_MOTION":"15.08878441"},{"TLE_LINE2":"2 52630  53.2160 148.2528 0001311  85.3786 274.7355 15.08874315 45563","GP_ID":"227769760","REF_FRAME":"TEME","OBJECT_TYPE":"PAYLOAD","SEMIMAJOR_AXIS":"6917.776","TLE_LINE1":"1 52630U 22052AJ  23068.91344885  .00014156  00000-0  90488-3 0  9997","ECCENTRICITY":"0.00013110","SITE":"AFETR","BSTAR":"0.00090488000000","EPOCH":"2023-03-09T21:55:21.980640","PERIAPSIS":"538.734","CLASSIFICATION_TYPE":"U","TIME_SYSTEM":"UTC","INCLINATION":"53.2160","APOAPSIS":"540.547","OBJECT_NAME":"STARLINK-3989","MEAN_MOTION":"15.08874315","FILE":"3855951","EPHEMERIS_TYPE":"0","MEAN_MOTION_DOT":"0.00014156","RA_OF_ASC_NODE":"148.2528","RCS_SIZE":"LARGE","MEAN_ELEMENT_THEORY":"SGP4","PERIOD":"95.435","COUNTRY_CODE":"US","REV_AT_EPOCH":"4556","LAUNCH_DATE":"2022-05-14","CENTER_NAME":"EARTH","ARG_OF_PERICENTER":"85.3786","MEAN_ANOMALY":"274.7355","OBJECT_ID":"2022-052AJ","MEAN_MOTION_DDOT":"0.0000000000000","NORAD_CAT_ID":"52630","ELEMENT_SET_NO":"999","DECAY_DATE":null}];
